OBJECT_NAME,OBJECT_ID,EPOCH,MEAN_MOTION,ECCENTRICITY,INCLINATION,RA_OF_ASC_NODE,ARG_OF_PERICENTER,MEAN_ANOMALY,EPHEMERIS_TYPE,CLASSIFICATION_TYPE,NORAD_CAT_ID,ELEMENT_SET_NO,REV_AT_EPOCH,BSTAR,MEAN_MOTION_DOT,MEAN_MOTION_DDOT
TIANMU-1 21,2023-208C,2026-07-12T03:28:39.959616,15.35516554,.0006395,97.4522,313.0320,215.7420,144.3396,0,U,58662,999,14139,.17945E-3,.6114E-4,0
TIANMU-1 22,2023-208D,2026-07-12T04:00:10.337184,15.31400499,.0002512,97.4517,309.5171,233.2520,126.8491,0,U,58663,999,14115,.15576E-3,.4644E-4,0
TIANMU-1 15,2024-004A,2026-07-12T04:45:26.310816,15.26894925,.0005861,97.4668,19.3890,241.4697,118.5952,0,U,58700,999,13959,.12862E-3,.3323E-4,0
TIANMU-1 16,2024-004B,2026-07-12T04:30:33.719328,15.26997602,.0004341,97.4615,18.5969,259.9171,100.1578,0,U,58701,999,13959,.12373E-3,.3204E-4,0
TIANMU-1 17,2024-004C,2026-07-12T04:09:39.045312,15.26995690,.0003842,97.4641,19.0765,267.2316,92.8483,0,U,58702,999,13958,.1306E-3,.3385E-4,0
TIANMU-1 18,2024-004D,2026-07-12T05:09:20.638944,15.26911903,.0003558,97.4660,19.3803,239.0574,121.0315,0,U,58703,999,13959,.12586E-3,.3251E-4,0
INSAT-3DS,2024-033A,2026-07-12T03:29:38.637312,1.00271233,.0001033,0.0999,265.3458,226.0061,293.1741,0,U,58990,999,4731,0,-.153E-5,0
METEOR-M2 4,2024-039A,2026-07-12T03:42:57.299040,14.22431982,.0008243,98.7023,152.1408,96.3426,263.8691,0,U,59051,999,12281,.12132E-4,-.17E-6,0
GOES 19,2024-119A,2026-07-12T02:53:16.973376,1.00269802,.0000597,0.0103,271.4196,294.2943,52.4196,0,U,60133,999,721,0,-.245E-5,0
MTG-S1,2025-143A,2026-07-12T03:14:41.667936,1.00272903,.0003492,0.5864,344.3361,262.0819,91.8616,0,U,64723,999,366,0,-.4E-7,0
METOP-SGA1,2025-172A,2026-07-12T02:04:35.531040,14.19818813,.0007237,98.6631,252.2877,341.6268,18.4646,0,U,65159,999,4732,.19559E-4,-.2E-7,0
FENGYUN 3H,2025-219A,2026-07-11T20:16:59.191392,14.19924500,.00012139,98.6772,133.1354,62.6147,297.5153,0,U,65815,999,4088,.19995212E-4,-.1E-7,0
