TIANMU-1 21             
1 58662U 23208C   26193.14490694  .00006114  00000+0  17945-3 0  9990
2 58662  97.4522 313.0320 0006395 215.7420 144.3396 15.35516554141392
TIANMU-1 22             
1 58663U 23208D   26193.16678631  .00004644  00000+0  15576-3 0  9996
2 58663  97.4517 309.5171 0002512 233.2520 126.8491 15.31400499141155
TIANMU-1 15             
1 58700U 24004A   26193.19822119  .00003323  00000+0  12862-3 0  9996
2 58700  97.4668  19.3890 0005861 241.4697 118.5952 15.26894925139594
TIANMU-1 16             
1 58701U 24004B   26193.18789027  .00003204  00000+0  12373-3 0  9991
2 58701  97.4615  18.5969 0004341 259.9171 100.1578 15.26997602139595
TIANMU-1 17             
1 58702U 24004C   26193.17336858  .00003385  00000+0  13060-3 0  9995
2 58702  97.4641  19.0765 0003842 267.2316  92.8483 15.26995690139589
TIANMU-1 18             
1 58703U 24004D   26193.21482221  .00003251  00000+0  12586-3 0  9991
2 58703  97.4660  19.3803 0003558 239.0574 121.0315 15.26911903139599
INSAT-3DS               
1 58990U 24033A   26193.14558608 -.00000153  00000+0  00000+0 0  9999
2 58990   0.0999 265.3458 0001033 226.0061 293.1741  1.00271233 47318
METEOR-M2 4             
1 59051U 24039A   26193.15482985 -.00000017  00000+0  12132-4 0  9992
2 59051  98.7023 152.1408 0008243  96.3426 263.8691 14.22431982122814
GOES 19                 
1 60133U 24119A   26193.12033534 -.00000245  00000+0  00000+0 0  9992
2 60133   0.0103 271.4196 0000597 294.2943  52.4196  1.00269802  7218
MTG-S1                  
1 64723U 25143A   26193.13520449 -.00000004  00000+0  00000+0 0  9999
2 64723   0.5864 344.3361 0003492 262.0819  91.8616  1.00272903  3667
METOP-SGA1              
1 65159U 25172A   26193.08652235 -.00000002  00000+0  19559-4 0  9990
2 65159  98.6631 252.2877 0007237 341.6268  18.4646 14.19818813 47322
FENGYUN 3H              
1 65815U 25219A   26192.84512953 -.00000001  00000+0  19995-4 0  9999
2 65815  98.6772 133.1354 0001213  62.6147 297.5153 14.19924500 40886
